[{"OBJECT_NAME":"STARLINK-30582","OBJECT_ID":"2023-158J","EPOCH":"2026-03-09T22:43:59.076192","MEAN_MOTION":15.27356294,"ECCENTRICITY":0.00011668,"INCLINATION":43.0027,"RA_OF_ASC_NODE":25.2286,"ARG_OF_PERICENTER":260.4378,"MEAN_ANOMALY":99.6342,"EPHEMERIS_TYPE":0,"CLASSIFICATION_TYPE":"U","NORAD_CAT_ID":58059,"ELEMENT_SET_NO":999,"REV_AT_EPOCH":13361,"BSTAR":0.0033060368,"MEAN_MOTION_DOT":0.00091219,"MEAN_MOTION_DDOT":0},{"OBJECT_NAME":"LYNK TOWER 5","OBJECT_ID":"2024-043Z","EPOCH":"2026-03-09T22:11:51.175104","MEAN_MOTION":15.29454506,"ECCENTRICITY":0.00104056,"INCLINATION":97.5458,"RA_OF_ASC_NODE":204.7305,"ARG_OF_PERICENTER":234.6422,"MEAN_ANOMALY":125.3846,"EPHEMERIS_TYPE":0,"CLASSIFICATION_TYPE":"U","NORAD_CAT_ID":59121,"ELEMENT_SET_NO":999,"REV_AT_EPOCH":11186,"BSTAR":0.00031901545,"MEAN_MOTION_DOT":9.048e-5,"MEAN_MOTION_DDOT":0}]
