STARLINK-30582          
1 58059U 23158J   26068.94721153  .00091219  00000+0  33060-2 0  9995
2 58059  43.0027  25.2286 0001167 260.4378  99.6342 15.27356294133616
LYNK TOWER 5            
1 59121U 24043Z   26068.92489786  .00009048  00000+0  31902-3 0  9994
2 59121  97.5458 204.7305 0010406 234.6422 125.3846 15.29454506111860
